<?xml version="1.0" encoding="UTF-8"?>
<ndm xmlns:xsi="http://www.w3.org/2001/XMLSchema-instance" xsi:noNamespaceSchemaLocation="https://sanaregistry.org/r/ndmxml_unqualified/ndmxml-2.0.0-master-2.0.xsd">
<omm id="CCSDS_OMM_VERS" version="2.0">
<header><CREATION_DATE/><ORIGINATOR/></header><body><segment><metadata><OBJECT_NAME>QIANFAN-41</OBJECT_NAME><OBJECT_ID>2024-232F</OBJECT_ID><CENTER_NAME>EARTH</CENTER_NAME><REF_FRAME>TEME</REF_FRAME><TIME_SYSTEM>UTC</TIME_SYSTEM><MEAN_ELEMENT_THEORY>SGP4</MEAN_ELEMENT_THEORY></metadata><data><meanElements><EPOCH>2025-11-28T14:46:38.350560</EPOCH><MEAN_MOTION>13.50974104</MEAN_MOTION><ECCENTRICITY>.00129454</ECCENTRICITY><INCLINATION>89.0038</INCLINATION><RA_OF_ASC_NODE>42.6206</RA_OF_ASC_NODE><ARG_OF_PERICENTER>225.1326</ARG_OF_PERICENTER><MEAN_ANOMALY>134.8775</MEAN_ANOMALY></meanElements><tleParameters><EPHEMERIS_TYPE>0</EPHEMERIS_TYPE><CLASSIFICATION_TYPE>U</CLASSIFICATION_TYPE><NORAD_CAT_ID>62242</NORAD_CAT_ID><ELEMENT_SET_NO>999</ELEMENT_SET_NO><REV_AT_EPOCH>9734</REV_AT_EPOCH><BSTAR>.16441277E-3</BSTAR><MEAN_MOTION_DOT>.118E-5</MEAN_MOTION_DOT><MEAN_MOTION_DDOT>0</MEAN_MOTION_DDOT></tleParameters></data></segment></body></omm>
<omm id="CCSDS_OMM_VERS" version="2.0">
<header><CREATION_DATE/><ORIGINATOR/></header><body><segment><metadata><OBJECT_NAME>QIANFAN-42</OBJECT_NAME><OBJECT_ID>2024-232G</OBJECT_ID><CENTER_NAME>EARTH</CENTER_NAME><REF_FRAME>TEME</REF_FRAME><TIME_SYSTEM>UTC</TIME_SYSTEM><MEAN_ELEMENT_THEORY>SGP4</MEAN_ELEMENT_THEORY></metadata><data><meanElements><EPOCH>2025-11-28T13:59:37.303296</EPOCH><MEAN_MOTION>14.24467923</MEAN_MOTION><ECCENTRICITY>.00170554</ECCENTRICITY><INCLINATION>89.0029</INCLINATION><RA_OF_ASC_NODE>38.9727</RA_OF_ASC_NODE><ARG_OF_PERICENTER>127.1421</ARG_OF_PERICENTER><MEAN_ANOMALY>233.1332</MEAN_ANOMALY></meanElements><tleParameters><EPHEMERIS_TYPE>0</EPHEMERIS_TYPE><CLASSIFICATION_TYPE>U</CLASSIFICATION_TYPE><NORAD_CAT_ID>62243</NORAD_CAT_ID><ELEMENT_SET_NO>999</ELEMENT_SET_NO><REV_AT_EPOCH>9935</REV_AT_EPOCH><BSTAR>.2198603E-3</BSTAR><MEAN_MOTION_DOT>.524E-5</MEAN_MOTION_DOT><MEAN_MOTION_DDOT>0</MEAN_MOTION_DDOT></tleParameters></data></segment></body></omm>
<omm id="CCSDS_OMM_VERS" version="2.0">
<header><CREATION_DATE/><ORIGINATOR/></header><body><segment><metadata><OBJECT_NAME>QIANFAN-43</OBJECT_NAME><OBJECT_ID>2024-232H</OBJECT_ID><CENTER_NAME>EARTH</CENTER_NAME><REF_FRAME>TEME</REF_FRAME><TIME_SYSTEM>UTC</TIME_SYSTEM><MEAN_ELEMENT_THEORY>SGP4</MEAN_ELEMENT_THEORY></metadata><data><meanElements><EPOCH>2025-11-28T14:40:37.467264</EPOCH><MEAN_MOTION>13.50972931</MEAN_MOTION><ECCENTRICITY>.00142996</ECCENTRICITY><INCLINATION>89.0043</INCLINATION><RA_OF_ASC_NODE>42.6857</RA_OF_ASC_NODE><ARG_OF_PERICENTER>231.4951</ARG_OF_PERICENTER><MEAN_ANOMALY>128.4919</MEAN_ANOMALY></meanElements><tleParameters><EPHEMERIS_TYPE>0</EPHEMERIS_TYPE><CLASSIFICATION_TYPE>U</CLASSIFICATION_TYPE><NORAD_CAT_ID>62244</NORAD_CAT_ID><ELEMENT_SET_NO>999</ELEMENT_SET_NO><REV_AT_EPOCH>6595</REV_AT_EPOCH><BSTAR>.22338106E-3</BSTAR><MEAN_MOTION_DOT>.156E-5</MEAN_MOTION_DOT><MEAN_MOTION_DDOT>0</MEAN_MOTION_DDOT></tleParameters></data></segment></body></omm>
<omm id="CCSDS_OMM_VERS" version="2.0">
<header><CREATION_DATE/><ORIGINATOR/></header><body><segment><metadata><OBJECT_NAME>QIANFAN-44</OBJECT_NAME><OBJECT_ID>2024-232J</OBJECT_ID><CENTER_NAME>EARTH</CENTER_NAME><REF_FRAME>TEME</REF_FRAME><TIME_SYSTEM>UTC</TIME_SYSTEM><MEAN_ELEMENT_THEORY>SGP4</MEAN_ELEMENT_THEORY></metadata><data><meanElements><EPOCH>2025-11-28T14:22:58.155744</EPOCH><MEAN_MOTION>13.50975345</MEAN_MOTION><ECCENTRICITY>.00126007</ECCENTRICITY><INCLINATION>89.0041</INCLINATION><RA_OF_ASC_NODE>42.4979</RA_OF_ASC_NODE><ARG_OF_PERICENTER>227.5283</ARG_OF_PERICENTER><MEAN_ANOMALY>132.4804</MEAN_ANOMALY></meanElements><tleParameters><EPHEMERIS_TYPE>0</EPHEMERIS_TYPE><CLASSIFICATION_TYPE>U</CLASSIFICATION_TYPE><NORAD_CAT_ID>62245</NORAD_CAT_ID><ELEMENT_SET_NO>999</ELEMENT_SET_NO><REV_AT_EPOCH>9742</REV_AT_EPOCH><BSTAR>.22873402E-3</BSTAR><MEAN_MOTION_DOT>.16E-5</MEAN_MOTION_DOT><MEAN_MOTION_DDOT>0</MEAN_MOTION_DDOT></tleParameters></data></segment></body></omm>
<omm id="CCSDS_OMM_VERS" version="2.0">
<header><CREATION_DATE/><ORIGINATOR/></header><body><segment><metadata><OBJECT_NAME>QIANFAN-45</OBJECT_NAME><OBJECT_ID>2024-232K</OBJECT_ID><CENTER_NAME>EARTH</CENTER_NAME><REF_FRAME>TEME</REF_FRAME><TIME_SYSTEM>UTC</TIME_SYSTEM><MEAN_ELEMENT_THEORY>SGP4</MEAN_ELEMENT_THEORY></metadata><data><meanElements><EPOCH>2025-11-28T15:22:09.200064</EPOCH><MEAN_MOTION>13.50977141</MEAN_MOTION><ECCENTRICITY>.00132952</ECCENTRICITY><INCLINATION>89.0041</INCLINATION><RA_OF_ASC_NODE>42.6396</RA_OF_ASC_NODE><ARG_OF_PERICENTER>227.5108</ARG_OF_PERICENTER><MEAN_ANOMALY>132.4921</MEAN_ANOMALY></meanElements><tleParameters><EPHEMERIS_TYPE>0</EPHEMERIS_TYPE><CLASSIFICATION_TYPE>U</CLASSIFICATION_TYPE><NORAD_CAT_ID>62246</NORAD_CAT_ID><ELEMENT_SET_NO>999</ELEMENT_SET_NO><REV_AT_EPOCH>9735</REV_AT_EPOCH><BSTAR>-.26001395E-3</BSTAR><MEAN_MOTION_DOT>-.156E-5</MEAN_MOTION_DOT><MEAN_MOTION_DDOT>0</MEAN_MOTION_DDOT></tleParameters></data></segment></body></omm>
<omm id="CCSDS_OMM_VERS" version="2.0">
<header><CREATION_DATE/><ORIGINATOR/></header><body><segment><metadata><OBJECT_NAME>QIANFAN-46</OBJECT_NAME><OBJECT_ID>2024-232L</OBJECT_ID><CENTER_NAME>EARTH</CENTER_NAME><REF_FRAME>TEME</REF_FRAME><TIME_SYSTEM>UTC</TIME_SYSTEM><MEAN_ELEMENT_THEORY>SGP4</MEAN_ELEMENT_THEORY></metadata><data><meanElements><EPOCH>2025-11-28T14:11:06.290592</EPOCH><MEAN_MOTION>13.50977308</MEAN_MOTION><ECCENTRICITY>.00131606</ECCENTRICITY><INCLINATION>89.0040</INCLINATION><RA_OF_ASC_NODE>42.7143</RA_OF_ASC_NODE><ARG_OF_PERICENTER>233.5736</ARG_OF_PERICENTER><MEAN_ANOMALY>126.4202</MEAN_ANOMALY></meanElements><tleParameters><EPHEMERIS_TYPE>0</EPHEMERIS_TYPE><CLASSIFICATION_TYPE>U</CLASSIFICATION_TYPE><NORAD_CAT_ID>62247</NORAD_CAT_ID><ELEMENT_SET_NO>999</ELEMENT_SET_NO><REV_AT_EPOCH>9730</REV_AT_EPOCH><BSTAR>.20997433E-3</BSTAR><MEAN_MOTION_DOT>.147E-5</MEAN_MOTION_DOT><MEAN_MOTION_DDOT>0</MEAN_MOTION_DDOT></tleParameters></data></segment></body></omm>
<omm id="CCSDS_OMM_VERS" version="2.0">
<header><CREATION_DATE/><ORIGINATOR/></header><body><segment><metadata><OBJECT_NAME>QIANFAN-47</OBJECT_NAME><OBJECT_ID>2024-232M</OBJECT_ID><CENTER_NAME>EARTH</CENTER_NAME><REF_FRAME>TEME</REF_FRAME><TIME_SYSTEM>UTC</TIME_SYSTEM><MEAN_ELEMENT_THEORY>SGP4</MEAN_ELEMENT_THEORY></metadata><data><meanElements><EPOCH>2025-11-28T14:17:00.777696</EPOCH><MEAN_MOTION>13.50973299</MEAN_MOTION><ECCENTRICITY>.00136151</ECCENTRICITY><INCLINATION>89.0036</INCLINATION><RA_OF_ASC_NODE>42.6474</RA_OF_ASC_NODE><ARG_OF_PERICENTER>232.7490</ARG_OF_PERICENTER><MEAN_ANOMALY>127.2420</MEAN_ANOMALY></meanElements><tleParameters><EPHEMERIS_TYPE>0</EPHEMERIS_TYPE><CLASSIFICATION_TYPE>U</CLASSIFICATION_TYPE><NORAD_CAT_ID>62248</NORAD_CAT_ID><ELEMENT_SET_NO>999</ELEMENT_SET_NO><REV_AT_EPOCH>9733</REV_AT_EPOCH><BSTAR>.68915125E-4</BSTAR><MEAN_MOTION_DOT>.56E-6</MEAN_MOTION_DOT><MEAN_MOTION_DDOT>0</MEAN_MOTION_DDOT></tleParameters></data></segment></body></omm>
<omm id="CCSDS_OMM_VERS" version="2.0">
<header><CREATION_DATE/><ORIGINATOR/></header><body><segment><metadata><OBJECT_NAME>QIANFAN-48</OBJECT_NAME><OBJECT_ID>2024-232N</OBJECT_ID><CENTER_NAME>EARTH</CENTER_NAME><REF_FRAME>TEME</REF_FRAME><TIME_SYSTEM>UTC</TIME_SYSTEM><MEAN_ELEMENT_THEORY>SGP4</MEAN_ELEMENT_THEORY></metadata><data><meanElements><EPOCH>2025-11-28T15:10:20.188704</EPOCH><MEAN_MOTION>13.50975147</MEAN_MOTION><ECCENTRICITY>.00157924</ECCENTRICITY><INCLINATION>89.0041</INCLINATION><RA_OF_ASC_NODE>42.6450</RA_OF_ASC_NODE><ARG_OF_PERICENTER>236.3696</ARG_OF_PERICENTER><MEAN_ANOMALY>123.5949</MEAN_ANOMALY></meanElements><tleParameters><EPHEMERIS_TYPE>0</EPHEMERIS_TYPE><CLASSIFICATION_TYPE>U</CLASSIFICATION_TYPE><NORAD_CAT_ID>62249</NORAD_CAT_ID><ELEMENT_SET_NO>999</ELEMENT_SET_NO><REV_AT_EPOCH>9734</REV_AT_EPOCH><BSTAR>.2385044E-3</BSTAR><MEAN_MOTION_DOT>.166E-5</MEAN_MOTION_DOT><MEAN_MOTION_DDOT>0</MEAN_MOTION_DDOT></tleParameters></data></segment></body></omm>

</ndm>
