QIANFAN-41              
1 62242U 24232F   25332.61572165  .00000118  00000+0  16441-3 0  9995
2 62242  89.0038  42.6206 0012945 225.1326 134.8775 13.50974104 97340
QIANFAN-42              
1 62243U 24232G   25332.58307064  .00000524  00000+0  21986-3 0  9997
2 62243  89.0029  38.9727 0017055 127.1421 233.1332 14.24467923 99354
QIANFAN-43              
1 62244U 24232H   25332.61154476  .00000156  00000+0  22338-3 0  9992
2 62244  89.0043  42.6857 0014299 231.4951 128.4919 13.50972931 65955
QIANFAN-44              
1 62245U 24232J   25332.59928421  .00000160  00000+0  22873-3 0  9998
2 62245  89.0041  42.4979 0012600 227.5283 132.4804 13.50975345 97422
QIANFAN-45              
1 62246U 24232K   25332.64038426 -.00000156  00000+0 -26001-3 0  9996
2 62246  89.0041  42.6396 0013295 227.5108 132.4921 13.50977141 97353
QIANFAN-46              
1 62247U 24232L   25332.59104503  .00000147  00000+0  20997-3 0  9997
2 62247  89.0040  42.7143 0013160 233.5736 126.4202 13.50977308 97304
QIANFAN-47              
1 62248U 24232M   25332.59514789  .00000056  00000+0  68915-4 0  9991
2 62248  89.0036  42.6474 0013615 232.7490 127.2420 13.50973299 97338
QIANFAN-48              
1 62249U 24232N   25332.63217811  .00000166  00000+0  23850-3 0  9993
2 62249  89.0041  42.6450 0015792 236.3696 123.5949 13.50975147 97345
